1  2873U 67053G   22004.22344837 -.00000002  00000-0  36198-4 0  9996
2  2873  69.9750 300.8473 0004946 123.2406 343.8060 13.97897212782037
1 02873U 67053G   22004.22344837 -.00000002  00000-0  36198-4 0  9996
2 02873  69.9750 300.8473 0004946 123.2406 343.8060 13.97897212781373
1 02873U 67053G   22004.93012944 -.00000007  00000-0  32806-4 0  9992
2 02873  69.9750 299.3297 0004930 121.9562 300.4945 13.97897258781472
1  2873U 67053G   22005.22553608  .00000001  00000-0  38237-4 0  9999
2  2873  69.9750 298.6955 0004918 121.3920 347.2874 13.97897287782173
1 02873U 67053G   22005.30769726  .00000002  00000-0  38875-4 0  9997
2 02873  69.9750 298.5190 0004915 121.2218  40.8212 13.97897298781521
1 02873U 67053G   22005.93255098  .00000000  00000-0  37960-4 0  9990
2 02873  69.9750 297.1774 0004899 120.0002 305.7627 13.97897336781619
1  2873U 67053G   22006.23552778  .00000008  00000-0  43259-4 0  9995
2  2873  69.9750 296.5268 0004887 119.3777  30.7005 13.97897369782316
1 02873U 67053G   22006.86095764  .00000008  00000-0  43640-4 0  9995
2 02873  69.9750 295.1840 0004875 118.0790 298.6179 13.97897441781749
1  2873U 67053G   22007.23753331  .00000017  00000-0  49625-4 0  9997
2  2873  69.9750 294.3754 0004868 117.3054  33.9925 13.97897498782451
1 02873U 67053G   22007.52840810  .00000017  00000-0  49457-4 0  9991
2 02873  69.9750 293.7508 0004861 116.6638  58.0631 13.97897544781839
1 02873U 67053G   22007.86277262  .00000012  00000-0  45930-4 0  9990
2 02873  69.9749 293.0329 0004855 116.0173 300.9412 13.97897588781881
1  2873U 67053G   22008.24145469  .00000020  00000-0  51829-4 0  9999
2  2873  69.9749 292.2198 0004847 115.2511  46.9063 13.97897673782597
1 02873U 67053G   22008.52952994  .00000018  00000-0  50558-4 0  9994
2 02873  69.9749 291.6013 0004840 114.6304  56.8714 13.97897727781976
1 02873U 67053G   22008.93998432  .00000016  00000-0  48806-4 0  9997
2 02873  69.9749 290.7200 0004832 113.8720 322.6800 13.97897819782038
1  2873U 67053G   22009.53158447  .00000007  00000-0  42563-4 0  9992
2  2873  69.9749 289.4498 0004811 112.6222  60.3477 13.97897868782774
1 02873U 67053G   22009.94075531 -.00000005  00000-0  33851-4 0  9998
2 02873  69.9748 288.5713 0004803 111.8308 319.7317 13.97897893782176
1 02873U 67053G   22010.53330862 -.00000009  00000-0  31097-4 0  9990
2 02873  69.9748 287.2990 0004795 110.5096  62.2668 13.97897962782254
1  2873U 67053G   22010.86945924 -.00000017  00000-0  25596-4 0  9993
2  2873  69.9748 286.5773 0004793 109.8497 314.1451 13.97897986782951
1 02873U 67053G   22010.86945924 -.00000017  00000-0  25596-4 0  9993
2 02873  69.9748 286.5773 0004793 109.8497 314.1451 13.97897986782300
1 02873U 67053G   22011.53521042 -.00000017  00000-0  26031-4 0  9994
2 02873  69.9747 285.1479 0004777 108.4196  65.0572 13.97898035782391
1 02873U 67053G   22011.94476028 -.00000021  00000-0  23077-4 0  9994
2 02873  69.9746 284.2685 0004772 107.6146 326.3618 13.97898046782453
1  2873U 67053G   22012.16717372 -.00000016  00000-0  26144-4 0  9991
2  2873  69.9746 283.7910 0004768 107.1356   5.8321 13.97898071783146
1 02873U 67053G   22012.46567818 -.00000014  00000-0  27657-4 0  9990
2 02873  69.9746 283.1501 0004765 106.4421  68.3411 13.97898108782524
1  2873U 67053G   22013.46713765  .00000002  00000-0  39331-4 0  9993
2  2873  69.9745 280.9998 0004749 104.3213  68.9370 13.97898237783328
1 02873U 67053G   22013.46713765  .00000002  00000-0  39331-4 0  9993
2 02873  69.9745 280.9998 0004749 104.3213  68.9370 13.97898237782664
1 02873U 67053G   22013.94904646  .00000008  00000-0  43065-4 0  9991
2 02873  69.9745 279.9651 0004740 103.4132 334.3923 13.97898300782732
1  2873U 67053G   22014.46887569  .00000020  00000-0  51679-4 0  9997
2  2873  69.9744 278.8490 0004739 102.2340  70.9011 13.97898397783464
1 02873U 67053G   22014.46887569  .00000020  00000-0  51679-4 0  9997
2 02873  69.9744 278.8490 0004739 102.2340  70.9011 13.97898397782801
1 02873U 67053G   22014.87730521  .00000026  00000-0  56349-4 0  9992
2 02873  69.9744 277.9720 0004728 101.5082 326.4906 13.97898505782869
1  2873U 67053G   22015.47057198  .00000034  00000-0  61656-4 0  9997
2  2873  69.9743 276.6982 0004725 100.2229  72.5801 13.97898610783603
1 02873U 67053G   22015.47057198  .00000034  00000-0  61656-4 0  9997
2 02873  69.9743 276.6982 0004725 100.2229  72.5801 13.97898610782949
1 02873U 67053G   22015.87962963  .00000030  00000-0  58819-4 0  9999
2 02873  69.9743 275.8200 0004712  99.4311 331.3960 13.97898672783008
1  2873U 67053G   22016.47261334  .00000036  00000-0  62963-4 0  9991
2  2873  69.9742 274.5467 0004703  98.1469  76.0610 13.97898798783743
1 02873U 67053G   22016.47261334  .00000036  00000-0  62963-4 0  9991
2 02873  69.9742 274.5467 0004703  98.1469  76.0610 13.97898798783080
1 02873U 67053G   22016.95480272  .00000034  00000-0  61866-4 0  9997
2 02873  69.9741 273.5114 0004703  97.1907 342.9770 13.97898865783158
1  2873U 67053G   22017.47415546  .00000032  00000-0  60315-4 0  9993
2  2873  69.9741 272.3963 0004700  96.0720  77.0297 13.97898943783882
1 02873U 67053G   22017.47415546  .00000032  00000-0  60315-4 0  9993
2 02873  69.9741 272.3963 0004700  96.0720  77.0297 13.97898943783220
1 02873U 67053G   22017.95763203  .00000025  00000-0  55442-4 0  9999
2 02873  69.9740 271.3582 0004698  95.0987 350.4389 13.97898959783299
1 02873U 67053G   22018.10400260  .00000029  00000-0  58409-4 0  9998
2 02873  69.9740 271.0439 0004706  94.7482   7.1998 13.97899007783313
1  2873U 67053G   22018.81211762  .00000026  00000-0  55737-4 0  9991
2  2873  69.9739 269.5234 0004713  93.2599 331.3111 13.97899103784066
1 02873U 67053G   22018.88561003  .00000031  00000-0  59783-4 0  9995
2 02873  69.9739 269.3656 0004710  93.1152 341.2062 13.97899135783422
1 02873U 67053G   22019.40655841  .00000039  00000-0  65183-4 0  9997
2 02873  69.9739 268.2471 0004716  91.9573  83.3264 13.97899243783499
1  2873U 67053G   22019.88760410  .00000037  00000-0  63944-4 0  9999
2  2873  69.9738 267.2142 0004715  90.9963 344.4939 13.97899299784215
1 02873U 67053G   22019.88760410  .00000037  00000-0  63944-4 0  9999
2 02873  69.9738 267.2142 0004715  90.9963 344.4939 13.97899299783562
1 02873U 67053G   22020.11955990  .00000043  00000-0  67947-4 0  9990
2 02873  69.9737 266.7161 0004720  90.4748  72.0167 13.97899352783598
1  2873U 67053G   22020.88957559  .00000033  00000-0  61031-4 0  9994
2  2873  69.9736 265.0628 0004735  88.8614 347.6845 13.97899431784353
1 02873U 67053G   22020.88957559  .00000033  00000-0  61031-4 0  9994
2 02873  69.9736 265.0628 0004735  88.8614 347.6845 13.97899431783701
1 02873U 67053G   22021.40960461  .00000035  00000-0  62027-4 0  9997
2 02873  69.9736 263.9462 0004746  87.7182  85.1651 13.97899535783775
1 02873U 67053G   22021.94994035  .00000028  00000-0  57735-4 0  9992
2 02873  69.9735 262.7860 0004746  86.6502 284.7370 13.97899624783850
1 02873U 67053G   22022.03906677  .00000028  00000-0  57681-4 0  9998
2 02873  69.9735 262.5946 0004748  86.4458  13.3487 13.97899639783865
1  2873U 67053G   22022.12311219  .00000028  00000-0  57576-4 0  9993
2  2873  69.9734 262.4141 0004747  86.2563  76.3823 13.97899663784539
1 02873U 67053G   22022.89380125  .00000012  00000-0  46181-4 0  9992
2 02873  69.9733 260.7593 0004751  84.6915 355.3908 13.97899762783980
1  2873U 67053G   22023.41307183  .00000005  00000-0  41143-4 0  9999
2  2873  69.9732 259.6443 0004755  83.5356  89.0692 13.97899838784718
1 02873U 67053G   22023.41307183  .00000005  00000-0  41143-4 0  9999
2 02873  69.9732 259.6443 0004755  83.5356  89.0692 13.97899838784055
1 02873U 67053G   22023.95357755 -.00000007  00000-0  32431-4 0  9991
2 02873  69.9731 258.4837 0004762  82.4613 289.5030 13.97899863784130
1  2873U 67053G   22024.41487962 -.00000012  00000-0  29072-4 0  9990
2  2873  69.9731 257.4932 0004773  81.4809  91.3584 13.97899914784852
1 02873U 67053G   22024.41487962 -.00000012  00000-0  29072-4 0  9990
2 02873  69.9731 257.4932 0004773  81.4809  91.3584 13.97899914784199
1 02873U 67053G   22024.90050130 -.00000016  00000-0  26295-4 0  9995
2 02873  69.9730 256.4504 0004776  80.4792  15.5906 13.97899947784265
1 02873U 67053G   22025.04531300 -.00000014  00000-0  27717-4 0  9992
2 02873  69.9730 256.1395 0004783  80.1491  24.4886 13.97899971784286
1  2873U 67053G   22025.89979736 -.00000004  00000-0  34684-4 0  9994
2  2873  69.9728 254.3047 0004785  78.3822   5.2857 13.97900091785053
1 02873U 67053G   22025.89979736 -.00000004  00000-0  34684-4 0  9994
2 02873  69.9728 254.3047 0004785  78.3822   5.2857 13.97900091784401
1 02873U 67053G   22026.41869796  .00000005  00000-0  41426-4 0  9999
2 02873  69.9728 253.1905 0004805  77.2627  97.0666 13.97900173784470
1  2873U 67053G   22026.90226917  .00000013  00000-0  46629-4 0  9994
2  2873  69.9727 252.1522 0004814  76.3229  10.9207 13.97900225785194
1 02873U 67053G   22026.90226917  .00000013  00000-0  46629-4 0  9994
2 02873  69.9727 252.1522 0004814  76.3229  10.9207 13.97900225784542
1 02873U 67053G   22027.05827527  .00000019  00000-0  50826-4 0  9995
2 02873  69.9727 251.8172 0004820  75.9756  76.1566 13.97900268784567
1  2873U 67053G   22027.90535260  .00000034  00000-0  62016-4 0  9990
2  2873  69.9726 249.9982 0004835  74.2818  19.6154 13.97900427785349
1 02873U 67053G   22028.05999994  .00000035  00000-0  62588-4 0  9990
2 02873  69.9726 249.6662 0004841  73.9459  78.0036 13.97900444784701
1 02873U 67053G   22028.90673525  .00000040  00000-0  65568-4 0  9990
2 02873  69.9725 247.8480 0004848  72.2337  19.7609 13.97900602784829
1  2873U 67053G   22029.05333028  .00000039  00000-0  65357-4 0  9992
2  2873  69.9725 247.5332 0004851  71.9108  37.6239 13.97900623785505
1 02873U 67053G   22029.53468817  .00000045  00000-0  69728-4 0  9993
2 02873  69.9725 246.4996 0004866  70.9436 300.3712 13.97900771784912
1 02873U 67053G   22029.90855883  .00000042  00000-0  66981-4 0  9992
2 02873  69.9724 245.6967 0004873  70.2450  22.0664 13.97900812784962
